[
  {
    "OBJECT_NAME": "STARLINK-5804",
    "OBJECT_ID": "23028AZ",
    "EPOCH": "2025-11-11T06:11:12.801120",
    "MEAN_MOTION": 14.98331119,
    "ECCENTRICITY": 0.0002835,
    "INCLINATION": 69.9982,
    "RA_OF_ASC_NODE": 143.1697,
    "ARG_OF_PERICENTER": 269.6678,
    "MEAN_ANOMALY": 90.4157,
    "EPHEMERIS_TYPE": 0,
    "CLASSIFICATION_TYPE": "U",
    "NORAD_CAT_ID": 55788,
    "ELEMENT_SET_NO": 999,
    "REV_AT_EPOCH": 14928,
    "BSTAR": 3.4546e-05,
    "MEAN_MOTION_DOT": 3.19e-06,
    "MEAN_MOTION_DDOT": 0.0,
    "TLE_LINE1": "1 55788U 23028AZ  25315.25778705  .00000319  00000+0  34546-4 0  9993",
    "TLE_LINE2": "2 55788  69.9982 143.1697 0002835 269.6678  90.4157 14.98331119149281",
    "COMMENT": "Grouped by shell and plane from TLE"
  },
  {
    "OBJECT_NAME": "STARLINK-5815",
    "OBJECT_ID": "23028BA",
    "EPOCH": "2025-11-10T23:10:38.518176",
    "MEAN_MOTION": 14.98304543,
    "ECCENTRICITY": 0.0003329,
    "INCLINATION": 69.998,
    "RA_OF_ASC_NODE": 143.7556,
    "ARG_OF_PERICENTER": 286.4683,
    "MEAN_ANOMALY": 73.611,
    "EPHEMERIS_TYPE": 0,
    "CLASSIFICATION_TYPE": "U",
    "NORAD_CAT_ID": 55789,
    "ELEMENT_SET_NO": 999,
    "REV_AT_EPOCH": 14924,
    "BSTAR": 0.0005985200000000001,
    "MEAN_MOTION_DOT": 7.051e-05,
    "MEAN_MOTION_DDOT": 0.0,
    "TLE_LINE1": "1 55789U 23028BA  25314.96572359  .00007051  00000+0  59852-3 0  9994",
    "TLE_LINE2": "2 55789  69.9980 143.7556 0003329 286.4683  73.6110 14.98304543149241",
    "COMMENT": "Grouped by shell and plane from TLE"
  },
  {
    "OBJECT_NAME": "STARLINK-5813",
    "OBJECT_ID": "23028BB",
    "EPOCH": "2025-11-11T05:41:23.808768",
    "MEAN_MOTION": 14.98336787,
    "ECCENTRICITY": 0.0002428,
    "INCLINATION": 69.9991,
    "RA_OF_ASC_NODE": 143.0984,
    "ARG_OF_PERICENTER": 264.0297,
    "MEAN_ANOMALY": 96.0585,
    "EPHEMERIS_TYPE": 0,
    "CLASSIFICATION_TYPE": "U",
    "NORAD_CAT_ID": 55790,
    "ELEMENT_SET_NO": 999,
    "REV_AT_EPOCH": 14928,
    "BSTAR": 1.5975000000000002e-05,
    "MEAN_MOTION_DOT": 9.8e-07,
    "MEAN_MOTION_DDOT": 0.0,
    "TLE_LINE1": "1 55790U 23028BB  25315.23708112  .00000098  00000+0  15975-4 0  9998",
    "TLE_LINE2": "2 55790  69.9991 143.0984 0002428 264.0297  96.0585 14.98336787149289",
    "COMMENT": "Grouped by shell and plane from TLE"
  },
  {
    "OBJECT_NAME": "STARLINK-5807",
    "OBJECT_ID": "23028BC",
    "EPOCH": "2025-11-10T23:34:39.271872",
    "MEAN_MOTION": 14.98330437,
    "ECCENTRICITY": 0.0002734,
    "INCLINATION": 69.9985,
    "RA_OF_ASC_NODE": 143.8148,
    "ARG_OF_PERICENTER": 270.143,
    "MEAN_ANOMALY": 89.9416,
    "EPHEMERIS_TYPE": 0,
    "CLASSIFICATION_TYPE": "U",
    "NORAD_CAT_ID": 55791,
    "ELEMENT_SET_NO": 999,
    "REV_AT_EPOCH": 14924,
    "BSTAR": 4.2e-05,
    "MEAN_MOTION_DOT": 4.08e-06,
    "MEAN_MOTION_DDOT": 0.0,
    "TLE_LINE1": "1 55791U 23028BC  25314.98239898  .00000408  00000+0  42000-4 0  9994",
    "TLE_LINE2": "2 55791  69.9985 143.8148 0002734 270.1430  89.9416 14.98330437149246",
    "COMMENT": "Grouped by shell and plane from TLE"
  },
  {
    "OBJECT_NAME": "STARLINK-6309",
    "OBJECT_ID": "23065AJ",
    "EPOCH": "2025-11-11T00:46:49.617408",
    "MEAN_MOTION": 15.02507385,
    "ECCENTRICITY": 0.0001284,
    "INCLINATION": 43.0026,
    "RA_OF_ASC_NODE": 148.2752,
    "ARG_OF_PERICENTER": 282.7537,
    "MEAN_ANOMALY": 77.3162,
    "EPHEMERIS_TYPE": 0,
    "CLASSIFICATION_TYPE": "U",
    "NORAD_CAT_ID": 56535,
    "ELEMENT_SET_NO": 999,
    "REV_AT_EPOCH": 13862,
    "BSTAR": 0.0,
    "MEAN_MOTION_DOT": -2.383e-05,
    "MEAN_MOTION_DDOT": 0.0,
    "TLE_LINE1": "1 56535U 23065AJ  25315.03251872 -.00002383  00000+0 -16151-3 0  9998",
    "TLE_LINE2": "2 56535  43.0026 148.2752 0001284 282.7537  77.3162 15.02507385138621",
    "COMMENT": "Grouped by shell and plane from TLE"
  },
  {
    "OBJECT_NAME": "STARLINK-6312",
    "OBJECT_ID": "23065AK",
    "EPOCH": "2025-11-11T05:24:22.978944",
    "MEAN_MOTION": 15.02538883,
    "ECCENTRICITY": 0.0001105,
    "INCLINATION": 43.0025,
    "RA_OF_ASC_NODE": 147.1415,
    "ARG_OF_PERICENTER": 265.0907,
    "MEAN_ANOMALY": 94.9809,
    "EPHEMERIS_TYPE": 0,
    "CLASSIFICATION_TYPE": "U",
    "NORAD_CAT_ID": 56536,
    "ELEMENT_SET_NO": 999,
    "REV_AT_EPOCH": 13865,
    "BSTAR": 9.177600000000001e-05,
    "MEAN_MOTION_DOT": 1.036e-05,
    "MEAN_MOTION_DDOT": 0.0,
    "TLE_LINE1": "1 56536U 23065AK  25315.22526596  .00001036  00000+0  91776-4 0  9997",
    "TLE_LINE2": "2 56536  43.0025 147.1415 0001105 265.0907  94.9809 15.02538883138655",
    "COMMENT": "Grouped by shell and plane from TLE"
  },
  {
    "OBJECT_NAME": "STARLINK-6311",
    "OBJECT_ID": "23065AL",
    "EPOCH": "2025-11-11T05:29:10.649472",
    "MEAN_MOTION": 15.02536301,
    "ECCENTRICITY": 0.0001117,
    "INCLINATION": 43.0032,
    "RA_OF_ASC_NODE": 147.1699,
    "ARG_OF_PERICENTER": 270.5304,
    "MEAN_ANOMALY": 89.541,
    "EPHEMERIS_TYPE": 0,
    "CLASSIFICATION_TYPE": "U",
    "NORAD_CAT_ID": 56537,
    "ELEMENT_SET_NO": 999,
    "REV_AT_EPOCH": 13865,
    "BSTAR": 8.1524e-05,
    "MEAN_MOTION_DOT": 8.98e-06,
    "MEAN_MOTION_DDOT": 0.0,
    "TLE_LINE1": "1 56537U 23065AL  25315.22859548  .00000898  00000+0  81524-4 0  9999",
    "TLE_LINE2": "2 56537  43.0032 147.1699 0001117 270.5304  89.5410 15.02536301138654",
    "COMMENT": "Grouped by shell and plane from TLE"
  },
  {
    "OBJECT_NAME": "STARLINK-6135",
    "OBJECT_ID": "23065AN",
    "EPOCH": "2025-11-11T05:14:47.705280",
    "MEAN_MOTION": 15.02538116,
    "ECCENTRICITY": 0.0001129,
    "INCLINATION": 43.0016,
    "RA_OF_ASC_NODE": 147.0918,
    "ARG_OF_PERICENTER": 264.4035,
    "MEAN_ANOMALY": 95.6678,
    "EPHEMERIS_TYPE": 0,
    "CLASSIFICATION_TYPE": "U",
    "NORAD_CAT_ID": 56539,
    "ELEMENT_SET_NO": 999,
    "REV_AT_EPOCH": 13865,
    "BSTAR": 3.6321e-05,
    "MEAN_MOTION_DOT": 2.87e-06,
    "MEAN_MOTION_DDOT": 0.0,
    "TLE_LINE1": "1 56539U 23065AN  25315.21860770  .00000287  00000+0  36321-4 0  9996",
    "TLE_LINE2": "2 56539  43.0016 147.0918 0001129 264.4035  95.6678 15.02538116138657",
    "COMMENT": "Grouped by shell and plane from TLE"
  },
  {
    "OBJECT_NAME": "STARLINK-6136",
    "OBJECT_ID": "23065AP",
    "EPOCH": "2025-11-10T19:35:37.754880",
    "MEAN_MOTION": 15.02535867,
    "ECCENTRICITY": 0.0001184,
    "INCLINATION": 43.0028,
    "RA_OF_ASC_NODE": 149.2393,
    "ARG_OF_PERICENTER": 259.9881,
    "MEAN_ANOMALY": 100.0828,
    "EPHEMERIS_TYPE": 0,
    "CLASSIFICATION_TYPE": "U",
    "NORAD_CAT_ID": 56540,
    "ELEMENT_SET_NO": 999,
    "REV_AT_EPOCH": 13859,
    "BSTAR": 1.6819999999999998e-05,
    "MEAN_MOTION_DOT": 2.4e-07,
    "MEAN_MOTION_DDOT": 0.0,
    "TLE_LINE1": "1 56540U 23065AP  25314.81640920  .00000024  00000+0  16820-4 0  9997",
    "TLE_LINE2": "2 56540  43.0028 149.2393 0001184 259.9881 100.0828 15.02535867138593",
    "COMMENT": "Grouped by shell and plane from TLE"
  },
  {
    "OBJECT_NAME": "STARLINK-6249",
    "OBJECT_ID": "23065AQ",
    "EPOCH": "2025-11-10T19:37:13.710720",
    "MEAN_MOTION": 15.02538114,
    "ECCENTRICITY": 0.0001159,
    "INCLINATION": 43.0025,
    "RA_OF_ASC_NODE": 149.2445,
    "ARG_OF_PERICENTER": 259.03,
    "MEAN_ANOMALY": 101.0412,
    "EPHEMERIS_TYPE": 0,
    "CLASSIFICATION_TYPE": "U",
    "NORAD_CAT_ID": 56541,
    "ELEMENT_SET_NO": 999,
    "REV_AT_EPOCH": 13859,
    "BSTAR": 3.6030000000000006e-05,
    "MEAN_MOTION_DOT": 2.83e-06,
    "MEAN_MOTION_DDOT": 0.0,
    "TLE_LINE1": "1 56541U 23065AQ  25314.81751980  .00000283  00000+0  36030-4 0  9999",
    "TLE_LINE2": "2 56541  43.0025 149.2445 0001159 259.0300 101.0412 15.02538114138596",
    "COMMENT": "Grouped by shell and plane from TLE"
  },
  {
    "OBJECT_NAME": "STARLINK-6266",
    "OBJECT_ID": "23065AR",
    "EPOCH": "2025-11-11T05:19:35.203872",
    "MEAN_MOTION": 15.02537126,
    "ECCENTRICITY": 0.000112,
    "INCLINATION": 43.0032,
    "RA_OF_ASC_NODE": 147.1199,
    "ARG_OF_PERICENTER": 269.1832,
    "MEAN_ANOMALY": 90.8882,
    "EPHEMERIS_TYPE": 0,
    "CLASSIFICATION_TYPE": "U",
    "NORAD_CAT_ID": 56542,
    "ELEMENT_SET_NO": 999,
    "REV_AT_EPOCH": 13865,
    "BSTAR": 3.2384e-05,
    "MEAN_MOTION_DOT": 2.34e-06,
    "MEAN_MOTION_DDOT": 0.0,
    "TLE_LINE1": "1 56542U 23065AR  25315.22193523  .00000234  00000+0  32384-4 0  9993",
    "TLE_LINE2": "2 56542  43.0032 147.1199 0001120 269.1832  90.8882 15.02537126138653",
    "COMMENT": "Grouped by shell and plane from TLE"
  },
  {
    "OBJECT_NAME": "STARLINK-6226",
    "OBJECT_ID": "23065AT",
    "EPOCH": "2025-11-11T05:46:35.463936",
    "MEAN_MOTION": 15.02538501,
    "ECCENTRICITY": 9.02e-05,
    "INCLINATION": 43.0027,
    "RA_OF_ASC_NODE": 146.4114,
    "ARG_OF_PERICENTER": 272.5187,
    "MEAN_ANOMALY": 87.5552,
    "EPHEMERIS_TYPE": 0,
    "CLASSIFICATION_TYPE": "U",
    "NORAD_CAT_ID": 56544,
    "ELEMENT_SET_NO": 999,
    "REV_AT_EPOCH": 13866,
    "BSTAR": 6.347300000000001e-05,
    "MEAN_MOTION_DOT": 6.54e-06,
    "MEAN_MOTION_DDOT": 0.0,
    "TLE_LINE1": "1 56544U 23065AT  25315.24068824  .00000654  00000+0  63473-4 0  9991",
    "TLE_LINE2": "2 56544  43.0027 146.4114 0000902 272.5187  87.5552 15.02538501138662",
    "COMMENT": "Grouped by shell and plane from TLE"
  },
  {
    "OBJECT_NAME": "STARLINK-6086",
    "OBJECT_ID": "23065AU",
    "EPOCH": "2025-11-10T19:21:14.675904",
    "MEAN_MOTION": 15.02539866,
    "ECCENTRICITY": 0.0001266,
    "INCLINATION": 43.0025,
    "RA_OF_ASC_NODE": 149.1614,
    "ARG_OF_PERICENTER": 265.4047,
    "MEAN_ANOMALY": 94.6651,
    "EPHEMERIS_TYPE": 0,
    "CLASSIFICATION_TYPE": "U",
    "NORAD_CAT_ID": 56545,
    "ELEMENT_SET_NO": 999,
    "REV_AT_EPOCH": 13859,
    "BSTAR": 4.2085e-05,
    "MEAN_MOTION_DOT": 3.65e-06,
    "MEAN_MOTION_DDOT": 0.0,
    "TLE_LINE1": "1 56545U 23065AU  25314.80641986  .00000365  00000+0  42085-4 0  9994",
    "TLE_LINE2": "2 56545  43.0025 149.1614 0001266 265.4047  94.6651 15.02539866138592",
    "COMMENT": "Grouped by shell and plane from TLE"
  }
]